ZHONGXING-11            
1 39157U 13020A   26114.73086053 -.00000305  00000+0  00000+0 0  9994
2 39157   0.0222 295.6622 0001494 102.4154 175.6572  1.00274217 47367
EUTELSAT 7B             
1 39163U 13022A   26115.83933421  .00000034  00000+0  00000+0 0  9993
2 39163   0.0750  19.7025 0005907 357.7592 145.5336  1.00271179 47421
WGS F5 (USA 243)        
1 39168U 13024A   26115.48537220 -.00000298  00000+0  00000+0 0  9991
2 39168   0.0157 233.8848 0000278  60.4157  41.4352  1.00272214 46646
SES-6                   
1 39172U 13026A   26115.84430588 -.00000275  00000+0  00000+0 0  9992
2 39172   0.0243 341.5646 0002378  56.7305  79.0035  1.00271216 47205
IRNSS-1A                
1 39199U 13034A   26115.43536534  .00000075  00000+0  00000+0 0  9990
2 39199  35.6090  64.6236 0017045 187.4898 173.0272  1.00272082 46841
MUOS-2                  
1 39206U 13036A   26115.75947310 -.00000024  00000+0  00000+0 0  9999
2 39206   4.8919  45.4347 0050525 180.6758  73.0089  1.00270780 46666
ALPHASAT                
1 39215U 13038A   26115.64335663  .00000121  00000+0  00000+0 0  9998
2 39215   2.9920   1.8417 0002288  55.7920  52.5005  1.00272097 43498
INSAT-3D                
1 39216U 13038B   26115.80660573 -.00000351  00000+0  00000+0 0  9994
2 39216   1.7925  83.1654 0001492 279.5999 270.9537  1.00272318 46557
WGS F6 (USA 244)        
1 39222U 13041A   26115.04119345  .00000000  00000+0  00000+0 0  9997
2 39222   0.0101 229.4927 0000143 112.0689 111.1414  1.00270510 45527
ES'HAIL 1               
1 39233U 13044A   26115.78606564  .00000129  00000+0  00000+0 0  9999
2 39233   0.0563  15.3520 0002327  16.7905 130.1089  1.00270484 46103
GSAT-7                  
1 39234U 13044B   26115.79559899 -.00000090  00000+0  00000+0 0  9997
2 39234   0.0874  86.2149 0004672 215.0269 272.9589  1.00271614 44738
AMOS-4                  
1 39237U 13045A   26115.79386566 -.00000006  00000+0  00000+0 0  9997
2 39237   0.0161 238.7958 0003220 144.2997 181.5059  1.00271379 46435
AEHF-3 (USA 246)        
1 39256U 13050A   26115.60820293  .00000019  00000+0  00000+0 0  9997
2 39256   5.1645  67.6565 0088570 188.4088  52.3148  1.00268296 45127
ASTRA 2E                
1 39285U 13056A   26115.78667229  .00000137  00000+0  00000+0 0  9993
2 39285   0.0616   5.2399 0002322  30.0620 130.2150  1.00272069 45895
